[
    {
        "Altitude(m)": 607886.7190075483,
        "Argument of Periapsis(deg)": 0.0,
        "Eccentricity": 0.0,
        "Inclination(deg)": 60.0,
        "Latitude(deg)": 40.99851830173358,
        "Longitude(deg)": 29.97286238813683,
        "Mean Anomaly(deg)": 49.090899999999984,
        "RAAN(deg)": 100.0,
        "Satellite Name": "Test1 443",
        "Satellite Number": 443,
        "Semi-Major Axis(m)": 6980739.136638005,
        "Time(s)": 0
    },
    {
        "Altitude(m)": 607987.6335501843,
        "Argument of Periapsis(deg)": 0.00010418945913296404,
        "Eccentricity": 0.0,
        "Inclination(deg)": 60.0,
        "Latitude(deg)": 41.463609561988136,
        "Longitude(deg)": 30.477088906381223,
        "Mean Anomaly(deg)": 49.71100614546182,
        "RAAN(deg)": 99.99957995086025,
        "Satellite Name": "Test1 443",
        "Satellite Number": 443,
        "Semi-Major Axis(m)": 6980739.136638005,
        "Time(s)": 10
    }
]